SAUDISAT 1C (SO-50)     
1 27607U 02058C   26198.16208639  .00000356  00000+0  60036-4 0  9990
2 27607  64.5519  36.2392 0074468 256.9149 102.3638 14.83100454268902
SAUDISAT 2              
1 28371U 04025F   26197.90866543  .00000090  00000+0  31087-4 0  9999
2 28371  98.5521 198.6604 0024167 202.8058 157.2067 14.56698750170076
SAUDISAT 3              
1 31118U 07012B   26197.83949434  .00000101  00000+0  24451-4 0  9994
2 31118  98.1467 148.2621 0015682 129.8327 230.4262 14.71440794 32105
PISAT                   
1 41784U 16059B   26197.56946709  .00000433  00000+0  81287-4 0  9995
2 41784  97.8192 196.7617 0030481 110.6238 249.8241 14.69031064524056
FLYING LAPTOP           
1 42831U 17042G   26198.17956471  .00001754  00000+0  14024-3 0  9998
2 42831  97.4815 352.5854 0019613  26.2023 334.0190 15.01320038490951
SALSAT                  
1 46495U 20068K   26197.90294493  .00003936  00000+0  13754-3 0  9992
2 46495  97.8857 202.7868 0009381 186.6655 173.4461 15.30185999319903
